{
  "type": "FeatureCollection",
  "features": [
    {
      "type": "Feature",
      "geometry": {
        "type": "LineString",
        "coordinates": [
          [
            11.6735917,
            48.2410847
          ],
          [
            11.6739986,
            48.2420186
          ],
          [
            11.6753071,
            48.2439279
          ],
          [
            11.6767392,
            48.2451793
          ],
          [
            11.6805939,
            48.2475848
          ],
          [
            11.6814611,
            48.2481442
          ],
          [
            11.6824154,
            48.2489678
          ],
          [
            11.6830158,
            48.2496199
          ],
          [
            11.6835188,
            48.2503749
          ],
          [
            11.683983,
            48.251073
          ],
          [
            11.6841922,
            48.2518636
          ],
          [
            11.6843184,
            48.2528187
          ],
          [
            11.6841911,
            48.2537232
          ],
          [
            11.6837368,
            48.2551404
          ],
          [
            11.6830135,
            48.2564318
          ],
          [
            11.6817324,
            48.258287
          ],
          [
            11.6800429,
            48.2604714
          ],
          [
            11.6797587,
            48.2612691
          ],
          [
            11.6797584,
            48.2621032
          ],
          [
            11.6799119,
            48.2638062
          ],
          [
            11.6805854,
            48.2654278
          ],
          [
            11.6807632,
            48.2655776
          ],
          [
            11.6833072,
            48.2679241
          ],
          [
            11.6839685,
            48.2683724
          ],
          [
            11.6854888,
            48.2694984
          ],
          [
            11.6858331,
            48.2697544
          ],
          [
            11.6875292,
            48.2710154
          ]
        ]
      },
      "properties": {
        "osm_id": 23603962,
        "name": "Isar",
        "waterway": "river"
      }
    },
    {
      "type": "Feature",
      "geometry": {
        "type": "LineString",
        "coordinates": [
          [
            11.5986777,
            48.1492604
          ],
          [
            11.6009617,
            48.1517657
          ],
          [
            11.6023949,
            48.1533941
          ],
          [
            11.6026031,
            48.1536306
          ],
          [
            11.6048594,
            48.1561941
          ],
          [
            11.6052757,
            48.156643
          ],
          [
            11.605381,
            48.1567522
          ],
          [
            11.6054584,
            48.1568349
          ],
          [
            11.6085608,
            48.1601663
          ],
          [
            11.6102839,
            48.1620616
          ],
          [
            11.6161619,
            48.1684653
          ],
          [
            11.6164187,
            48.1687981
          ]
        ]
      },
      "properties": {
        "osm_id": 25554657,
        "name": "Isar",
        "waterway": "river"
      }
    },
    {
      "type": "Feature",
      "geometry": {
        "type": "LineString",
        "coordinates": [
          [
            11.5581572,
            48.107268
          ],
          [
            11.5592566,
            48.1080242
          ],
          [
            11.5602511,
            48.1092698
          ],
          [
            11.560539,
            48.1098736
          ],
          [
            11.5606397,
            48.1105225
          ],
          [
            11.5605009,
            48.1111712
          ],
          [
            11.5601292,
            48.111706
          ],
          [
            11.5596171,
            48.112062
          ],
          [
            11.5594026,
            48.1128278
          ],
          [
            11.5592332,
            48.1159616
          ],
          [
            11.5595343,
            48.1165796
          ],
          [
            11.559834,
            48.1171946
          ],
          [
            11.5604129,
            48.1178194
          ],
          [
            11.5614842,
            48.1187584
          ],
          [
            11.5624001,
            48.1196591
          ],
          [
            11.5643687,
            48.1209327
          ],
          [
            11.5671512,
            48.1223965
          ],
          [
            11.5704771,
            48.1242044
          ],
          [
            11.5737285,
            48.1259766
          ],
          [
            11.5754959,
            48.1268901
          ],
          [
            11.5770367,
            48.1277623
          ],
          [
            11.5782305,
            48.1282895
          ]
        ]
      },
      "properties": {
        "osm_id": 26766970,
        "name": "Isar",
        "waterway": "river"
      }
    },
    {
      "type": "Feature",
      "geometry": {
        "type": "LineString",
        "coordinates": [
          [
            11.6875292,
            48.2710154
          ],
          [
            11.6877152,
            48.2712398
          ],
          [
            11.6878856,
            48.2715928
          ],
          [
            11.6880178,
            48.2718546
          ],
          [
            11.6881746,
            48.272035
          ],
          [
            11.6885313,
            48.2722524
          ],
          [
            11.689742,
            48.2728632
          ],
          [
            11.6900717,
            48.2731056
          ],
          [
            11.6901839,
            48.2731881
          ],
          [
            11.6906934,
            48.2737447
          ],
          [
            11.6910535,
            48.2743013
          ],
          [
            11.6917224,
            48.2754448
          ],
          [
            11.692153,
            48.2768302
          ],
          [
            11.6920725,
            48.2793204
          ],
          [
            11.6917533,
            48.2817672
          ],
          [
            11.6917837,
            48.2828764
          ],
          [
            11.6921689,
            48.283989
          ],
          [
            11.6934296,
            48.285938
          ],
          [
            11.6939065,
            48.2864523
          ],
          [
            11.6970311,
            48.2895396
          ],
          [
            11.6976214,
            48.2903007
          ],
          [
            11.6984219,
            48.2916101
          ],
          [
            11.6988709,
            48.2930107
          ],
          [
            11.6987184,
            48.2948622
          ],
          [
            11.6986891,
            48.2983767
          ],
          [
            11.6994239,
            48.3007017
          ],
          [
            11.7005466,
            48.3028933
          ],
          [
            11.7010732,
            48.3042646
          ],
          [
            11.7012151,
            48.3055137
          ],
          [
            11.7006337,
            48.307473
          ],
          [
            11.7004985,
            48.3078195
          ],
          [
            11.699335,
            48.309881
          ],
          [
            11.6993432,
            48.3111874
          ],
          [
            11.6996374,
            48.3128095
          ],
          [
            11.6997209,
            48.3132696
          ],
          [
            11.6999213,
            48.3144795
          ],
          [
            11.7000411,
            48.3149488
          ],
          [
            11.6998172,
            48.3164461
          ],
          [
            11.6990154,
            48.3180278
          ],
          [
            11.6989221,
            48.3196397
          ],
          [
            11.6999606,
            48.3215854
          ],
          [
            11.7023493,
            48.3233652
          ],
          [
            11.7042338,
            48.3242047
          ],
          [
            11.7050599,
            48.3245852
          ],
          [
            11.7061715,
            48.325557
          ],
          [
            11.7068132,
            48.3264798
          ],
          [
            11.7073769,
            48.3277211
          ],
          [
            11.7079861,
            48.3286075
          ],
          [
            11.7087439,
            48.3293437
          ],
          [
            11.7119813,
            48.3313088
          ],
          [
            11.712976,
            48.3322447
          ],
          [
            11.7137829,
            48.3335342
          ],
          [
            11.7142897,
            48.3347898
          ],
          [
            11.714418,
            48.3358622
          ],
          [
            11.7143923,
            48.3367751
          ],
          [
            11.7141952,
            48.3379229
          ]
        ]
      },
      "properties": {
        "osm_id": 41480137,
        "name": "Isar",
        "waterway": "river"
      }
    },
    {
      "type": "Feature",
      "geometry": {
        "type": "LineString",
        "coordinates": [
          [
            11.6406538,
            48.2048867
          ],
          [
            11.6409736,
            48.2051614
          ],
          [
            11.6417457,
            48.2058439
          ],
          [
            11.6421856,
            48.20612
          ],
          [
            11.6430037,
            48.2065365
          ],
          [
            11.6436988,
            48.2067718
          ],
          [
            11.6448411,
            48.2073183
          ],
          [
            11.6459673,
            48.207857
          ],
          [
            11.6471914,
            48.2084875
          ],
          [
            11.6480383,
            48.2090025
          ],
          [
            11.6493125,
            48.2100077
          ],
          [
            11.6504656,
            48.2118739
          ],
          [
            11.6509952,
            48.2132811
          ],
          [
            11.6514838,
            48.2149903
          ],
          [
            11.6513777,
            48.2165686
          ],
          [
            11.651348,
            48.217842
          ],
          [
            11.6517188,
            48.2189622
          ],
          [
            11.6522917,
            48.2200094
          ],
          [
            11.6534393,
            48.2208377
          ],
          [
            11.6549693,
            48.2214748
          ],
          [
            11.656901,
            48.2219697
          ],
          [
            11.658546,
            48.2224252
          ],
          [
            11.6594298,
            48.2227246
          ],
          [
            11.6603512,
            48.2232796
          ],
          [
            11.6612052,
            48.2242318
          ],
          [
            11.6616322,
            48.2253591
          ],
          [
            11.6617615,
            48.2270682
          ],
          [
            11.6618926,
            48.2281044
          ],
          [
            11.6622313,
            48.2288266
          ],
          [
            11.6625906,
            48.2294278
          ],
          [
            11.6630643,
            48.2299896
          ],
          [
            11.6641063,
            48.2309249
          ],
          [
            11.6649182,
            48.2313611
          ],
          [
            11.6670895,
            48.2321831
          ],
          [
            11.6686662,
            48.2327803
          ],
          [
            11.6700201,
            48.2335599
          ],
          [
            11.6703759,
            48.2338467
          ],
          [
            11.6717059,
            48.2352457
          ],
          [
            11.6723719,
            48.236309
          ],
          [
            11.6728787,
            48.2380924
          ],
          [
            11.6728965,
            48.2383947
          ],
          [
            11.6728939,
            48.2387356
          ],
          [
            11.6733552,
            48.2402452
          ],
          [
            11.6735917,
            48.2410847
          ]
        ]
      },
      "properties": {
        "osm_id": 41480141,
        "name": "Isar",
        "waterway": "river"
      }
    },
    {
      "type": "Feature",
      "geometry": {
        "type": "LineString",
        "coordinates": [
          [
            11.5782305,
            48.1282895
          ],
          [
            11.5806397,
            48.1294469
          ],
          [
            11.5826723,
            48.130554
          ],
          [
            11.584288,
            48.1313434
          ],
          [
            11.58519,
            48.1318229
          ],
          [
            11.585657,
            48.1322321
          ],
          [
            11.5861268,
            48.1327433
          ],
          [
            11.5872917,
            48.1338454
          ],
          [
            11.5876669,
            48.1342247
          ],
          [
            11.5889108,
            48.1356914
          ],
          [
            11.5894849,
            48.1362717
          ],
          [
            11.5898608,
            48.1366334
          ],
          [
            11.5899733,
            48.1367406
          ],
          [
            11.5906637,
            48.1373528
          ],
          [
            11.5908443,
            48.1374714
          ],
          [
            11.5910034,
            48.1375845
          ],
          [
            11.5912445,
            48.1377395
          ],
          [
            11.5925748,
            48.1385271
          ],
          [
            11.5926501,
            48.1385515
          ],
          [
            11.5932562,
            48.138752
          ]
        ]
      },
      "properties": {
        "osm_id": 41480144,
        "name": "Isar",
        "waterway": "river"
      }
    },
    {
      "type": "Feature",
      "geometry": {
        "type": "LineString",
        "coordinates": [
          [
            11.5527507,
            48.1054131
          ],
          [
            11.5529168,
            48.1056833
          ],
          [
            11.553188,
            48.1060172
          ],
          [
            11.55411,
            48.1063612
          ],
          [
            11.5549545,
            48.1065397
          ],
          [
            11.556501,
            48.1069079
          ],
          [
            11.5569314,
            48.1070372
          ],
          [
            11.5581572,
            48.107268
          ]
        ]
      },
      "properties": {
        "osm_id": 41480146,
        "name": "Isar",
        "waterway": "river"
      }
    },
    {
      "type": "Feature",
      "geometry": {
        "type": "LineString",
        "coordinates": [
          [
            11.5527507,
            48.1054131
          ],
          [
            11.5529653,
            48.1055212
          ],
          [
            11.5530747,
            48.1055238
          ],
          [
            11.5538618,
            48.1055428
          ],
          [
            11.5546083,
            48.1055086
          ],
          [
            11.5552694,
            48.1057293
          ],
          [
            11.5561131,
            48.1058764
          ],
          [
            11.5571567,
            48.1065239
          ],
          [
            11.5581572,
            48.107268
          ]
        ]
      },
      "properties": {
        "osm_id": 41480147,
        "name": "Isar",
        "waterway": "river"
      }
    },
    {
      "type": "Feature",
      "geometry": {
        "type": "LineString",
        "coordinates": [
          [
            11.5509817,
            48.1031177
          ],
          [
            11.5511527,
            48.1032908
          ],
          [
            11.5519384,
            48.1041124
          ],
          [
            11.5521231,
            48.1043365
          ],
          [
            11.5524923,
            48.1048904
          ],
          [
            11.5527507,
            48.1054131
          ]
        ]
      },
      "properties": {
        "osm_id": 41480148,
        "name": "Isar",
        "waterway": "river"
      }
    },
    {
      "type": "Feature",
      "geometry": {
        "type": "LineString",
        "coordinates": [
          [
            11.5498281,
            48.0913157
          ],
          [
            11.5500085,
            48.0924221
          ],
          [
            11.5500411,
            48.0926217
          ],
          [
            11.5502948,
            48.0928862
          ],
          [
            11.550284,
            48.0940291
          ],
          [
            11.5502406,
            48.0941751
          ],
          [
            11.550212,
            48.0942712
          ],
          [
            11.5501982,
            48.0943176
          ],
          [
            11.5499832,
            48.0958699
          ],
          [
            11.5499797,
            48.0960193
          ],
          [
            11.5499414,
            48.0976527
          ],
          [
            11.5498687,
            48.0994104
          ],
          [
            11.5498654,
            48.0995215
          ],
          [
            11.5498246,
            48.1008965
          ],
          [
            11.5498795,
            48.1010927
          ],
          [
            11.5500781,
            48.1017378
          ]
        ]
      },
      "properties": {
        "osm_id": 41480156,
        "name": "Isar",
        "waterway": "river"
      }
    },
    {
      "type": "Feature",
      "geometry": {
        "type": "LineString",
        "coordinates": [
          [
            11.6164187,
            48.1687981
          ],
          [
            11.6166188,
            48.1689446
          ],
          [
            11.6166251,
            48.1689512
          ]
        ]
      },
      "properties": {
        "osm_id": 41734234,
        "name": "Isar",
        "waterway": "river"
      }
    },
    {
      "type": "Feature",
      "geometry": {
        "type": "LineString",
        "coordinates": [
          [
            11.6166251,
            48.1689512
          ],
          [
            11.6178184,
            48.170262
          ],
          [
            11.6184514,
            48.1709572
          ],
          [
            11.6185544,
            48.171066
          ],
          [
            11.6192753,
            48.1718731
          ],
          [
            11.620595,
            48.1734561
          ],
          [
            11.6222365,
            48.1751929
          ],
          [
            11.6256381,
            48.1791167
          ],
          [
            11.6258238,
            48.179336
          ],
          [
            11.6296689,
            48.1838319
          ],
          [
            11.6301069,
            48.1843385
          ],
          [
            11.6312115,
            48.1856059
          ],
          [
            11.6329508,
            48.1881829
          ],
          [
            11.6340589,
            48.1898245
          ],
          [
            11.6350545,
            48.19151
          ],
          [
            11.6360424,
            48.1932232
          ],
          [
            11.6365458,
            48.1941119
          ],
          [
            11.6370173,
            48.1949444
          ],
          [
            11.6379527,
            48.1965952
          ],
          [
            11.6386524,
            48.1978308
          ],
          [
            11.6388149,
            48.198167
          ],
          [
            11.6388311,
            48.1982002
          ],
          [
            11.6392775,
            48.1992054
          ],
          [
            11.6394173,
            48.2001029
          ],
          [
            11.6395109,
            48.2004212
          ],
          [
            11.6395529,
            48.2019366
          ],
          [
            11.6395762,
            48.2027791
          ],
          [
            11.6398906,
            48.2036734
          ],
          [
            11.6400737,
            48.2041942
          ],
          [
            11.6406538,
            48.2048867
          ]
        ]
      },
      "properties": {
        "osm_id": 41734235,
        "name": "Isar",
        "waterway": "river"
      }
    },
    {
      "type": "Feature",
      "geometry": {
        "type": "LineString",
        "coordinates": [
          [
            11.5519384,
            48.1041124
          ],
          [
            11.5530773,
            48.1043086
          ],
          [
            11.5533069,
            48.1043124
          ],
          [
            11.5535697,
            48.1043167
          ],
          [
            11.5539953,
            48.1042454
          ],
          [
            11.5542812,
            48.1042581
          ],
          [
            11.5545221,
            48.1043516
          ]
        ]
      },
      "properties": {
        "osm_id": 51372964,
        "name": "Isar",
        "waterway": "river"
      }
    },
    {
      "type": "Feature",
      "geometry": {
        "type": "LineString",
        "coordinates": [
          [
            11.5003163,
            48.0267263
          ],
          [
            11.5010399,
            48.0267782
          ],
          [
            11.5018141,
            48.0268457
          ],
          [
            11.5023292,
            48.0269137
          ],
          [
            11.5027684,
            48.0269936
          ],
          [
            11.5030503,
            48.0270403
          ],
          [
            11.5032334,
            48.0270706
          ],
          [
            11.5036844,
            48.0271416
          ],
          [
            11.5040251,
            48.0271831
          ],
          [
            11.5042761,
            48.0272054
          ],
          [
            11.504551,
            48.0272055
          ],
          [
            11.5048238,
            48.0272056
          ],
          [
            11.5052394,
            48.0271993
          ],
          [
            11.5054964,
            48.0272241
          ],
          [
            11.5057879,
            48.0272798
          ],
          [
            11.50604,
            48.027375
          ],
          [
            11.506847,
            48.0277177
          ],
          [
            11.5072755,
            48.0279899
          ],
          [
            11.5074447,
            48.0281035
          ],
          [
            11.5078086,
            48.028415
          ],
          [
            11.5079618,
            48.0286018
          ],
          [
            11.5080977,
            48.0288014
          ],
          [
            11.508194,
            48.0290385
          ],
          [
            11.5083353,
            48.0294537
          ],
          [
            11.5083975,
            48.0300747
          ],
          [
            11.5083606,
            48.0304229
          ],
          [
            11.5082607,
            48.0313649
          ],
          [
            11.5082159,
            48.0320199
          ],
          [
            11.5084493,
            48.0337575
          ],
          [
            11.5089499,
            48.0348856
          ],
          [
            11.5099997,
            48.0361842
          ],
          [
            11.5107809,
            48.0369297
          ],
          [
            11.5114125,
            48.0374044
          ],
          [
            11.5144761,
            48.0392518
          ],
          [
            11.5145246,
            48.0392775
          ],
          [
            11.5145331,
            48.0392821
          ],
          [
            11.5151499,
            48.0395644
          ],
          [
            11.5156845,
            48.0399869
          ],
          [
            11.5162637,
            48.0404689
          ],
          [
            11.516549,
            48.0409134
          ],
          [
            11.5168411,
            48.0416746
          ],
          [
            11.5168963,
            48.0423025
          ],
          [
            11.516912,
            48.0424816
          ],
          [
            11.5168993,
            48.0426806
          ],
          [
            11.5168784,
            48.042924
          ],
          [
            11.5167791,
            48.0434358
          ],
          [
            11.5165086,
            48.0441457
          ],
          [
            11.5164056,
            48.0445474
          ],
          [
            11.5164977,
            48.0449584
          ],
          [
            11.5170421,
            48.0458024
          ],
          [
            11.5174476,
            48.0461686
          ],
          [
            11.517993,
            48.0465695
          ],
          [
            11.5198639,
            48.0473154
          ],
          [
            11.5215894,
            48.0480056
          ],
          [
            11.5222939,
            48.0487429
          ],
          [
            11.524593,
            48.0532575
          ],
          [
            11.5246978,
            48.0534633
          ],
          [
            11.5252618,
            48.054148
          ],
          [
            11.5256915,
            48.0546697
          ],
          [
            11.5268013,
            48.0557732
          ],
          [
            11.5283824,
            48.0568068
          ],
          [
            11.5292299,
            48.0570758
          ],
          [
            11.5303242,
            48.057247
          ],
          [
            11.5345908,
            48.0573285
          ],
          [
            11.5355264,
            48.0574548
          ],
          [
            11.5355435,
            48.0574571
          ],
          [
            11.5362474,
            48.0575522
          ],
          [
            11.5375091,
            48.0579079
          ],
          [
            11.5386764,
            48.0585332
          ],
          [
            11.5391807,
            48.0591015
          ],
          [
            11.5395909,
            48.0596983
          ],
          [
            11.5404738,
            48.0615474
          ],
          [
            11.5421957,
            48.0660017
          ],
          [
            11.5424591,
            48.067232
          ],
          [
            11.5424265,
            48.0681742
          ],
          [
            11.5423159,
            48.0689564
          ],
          [
            11.5418341,
            48.0702731
          ],
          [
            11.5414116,
            48.0709555
          ],
          [
            11.541112,
            48.0711495
          ],
          [
            11.5410989,
            48.0712037
          ],
          [
            11.5410479,
            48.071415
          ],
          [
            11.5409493,
            48.0717489
          ],
          [
            11.5410196,
            48.0721159
          ],
          [
            11.5413547,
            48.0730533
          ],
          [
            11.5414452,
            48.0735735
          ],
          [
            11.541388,
            48.0740184
          ],
          [
            11.541047,
            48.0747709
          ],
          [
            11.540759,
            48.075803
          ],
          [
            11.5406945,
            48.0768357
          ],
          [
            11.5406843,
            48.0785084
          ],
          [
            11.5405677,
            48.0788047
          ],
          [
            11.5406733,
            48.078943
          ],
          [
            11.5410519,
            48.0794389
          ],
          [
            11.5415869,
            48.0802125
          ],
          [
            11.5428155,
            48.0819941
          ],
          [
            11.543006,
            48.0823314
          ],
          [
            11.5430855,
            48.0824722
          ],
          [
            11.543929,
            48.0839663
          ],
          [
            11.5439762,
            48.0840516
          ],
          [
            11.5440288,
            48.0841465
          ],
          [
            11.5449434,
            48.0857985
          ],
          [
            11.5449816,
            48.0858475
          ],
          [
            11.5450226,
            48.0859
          ],
          [
            11.5461896,
            48.0873949
          ],
          [
            11.546281,
            48.0874699
          ],
          [
            11.5479463,
            48.0888369
          ],
          [
            11.5480077,
            48.0889051
          ],
          [
            11.5493962,
            48.090448
          ],
          [
            11.5495043,
            48.0905681
          ],
          [
            11.5496041,
            48.090679
          ],
          [
            11.5498281,
            48.0913157
          ]
        ]
      },
      "properties": {
        "osm_id": 171381873,
        "name": "Isar",
        "waterway": "river"
      }
    },
    {
      "type": "Feature",
      "geometry": {
        "type": "LineString",
        "coordinates": [
          [
            11.5500781,
            48.1017378
          ],
          [
            11.550299,
            48.102327
          ],
          [
            11.5506782,
            48.1027925
          ],
          [
            11.5509817,
            48.1031177
          ]
        ]
      },
      "properties": {
        "osm_id": 1088128095,
        "name": "Isar",
        "waterway": "river"
      }
    },
    {
      "type": "Feature",
      "geometry": {
        "type": "LineString",
        "coordinates": [
          [
            11.5932562,
            48.138752
          ],
          [
            11.5938784,
            48.1395546
          ],
          [
            11.5941932,
            48.1399268
          ],
          [
            11.5949922,
            48.1411664
          ],
          [
            11.5957398,
            48.1428513
          ],
          [
            11.5960575,
            48.1440136
          ],
          [
            11.5965123,
            48.14608
          ],
          [
            11.5966633,
            48.1468404
          ],
          [
            11.5969057,
            48.1475555
          ],
          [
            11.5973807,
            48.1481006
          ],
          [
            11.5983455,
            48.1488953
          ],
          [
            11.5983703,
            48.1489251
          ],
          [
            11.5986777,
            48.1492604
          ]
        ]
      },
      "properties": {
        "osm_id": 1088131458,
        "name": "Isar",
        "waterway": "river"
      }
    }
  ]
}